[{"OBJECT_NAME":"DMSP 5D-3 F17 (USA 191)","OBJECT_ID":"2006-050A","EPOCH":"2026-03-09T23:03:38.328192","MEAN_MOTION":14.14964226,"ECCENTRICITY":0.00097378,"INCLINATION":98.7414,"RA_OF_ASC_NODE":77.5505,"ARG_OF_PERICENTER":346.0855,"MEAN_ANOMALY":14.0049,"EPHEMERIS_TYPE":0,"CLASSIFICATION_TYPE":"U","NORAD_CAT_ID":29522,"ELEMENT_SET_NO":999,"REV_AT_EPOCH":99838,"BSTAR":0.00013823523,"MEAN_MOTION_DOT":2.24e-6,"MEAN_MOTION_DDOT":0},{"OBJECT_NAME":"COSMOS 1275 DEB","OBJECT_ID":"1981-053MN","EPOCH":"2026-03-09T22:44:05.038656","MEAN_MOTION":14.21555998,"ECCENTRICITY":0.00290468,"INCLINATION":83.1076,"RA_OF_ASC_NODE":260.5399,"ARG_OF_PERICENTER":301.766,"MEAN_ANOMALY":58.0693,"EPHEMERIS_TYPE":0,"CLASSIFICATION_TYPE":"U","NORAD_CAT_ID":27733,"ELEMENT_SET_NO":999,"REV_AT_EPOCH":35327,"BSTAR":0.0015359778,"MEAN_MOTION_DOT":3.394e-5,"MEAN_MOTION_DDOT":0}]
